{"type": "FeatureCollection", "features": [ {"type": "Feature", "properties": {"norad_id": 66546, "name": "SHIJIAN-30B", "group": "last-30-days", "lat": 50.59693874958497, "lon": 52.3671922325818, "alt_km": 512.3016304735311, "timestamp": "2025-12-11T10:53:14.620110+00:00", "meta": {"OBJECT_NAME": "SHIJIAN-30B", "OBJECT_ID": "2025-266B", "EPOCH": "2025-12-11T04:12:25.615872", "MEAN_MOTION": 15.15350119, "ECCENTRICITY": 0.0010462, "INCLINATION": 51.7968, "RA_OF_ASC_NODE": 340.1983, "ARG_OF_PERICENTER": 353.7632, "MEAN_ANOMALY": 6.3212, "EPHEMERIS_TYPE": 0, "CLASSIFICATION_TYPE": "U", "NORAD_CAT_ID": 66546, "ELEMENT_SET_NO": 999, "REV_AT_EPOCH": 334, "BSTAR": 0.00097762, "MEAN_MOTION_DOT": 0.00018429, "MEAN_MOTION_DDOT": 0}, "tle": {"line1": "1 66546U 25266B   25345.17529648  .00018429  00000+0  97762-3 0  9996", "line2": "2 66546  51.7968 340.1983 0010462 353.7632   6.3212 15.15350119  3340"}}, "geometry": {"type": "Point", "coordinates": [52.3671922325818, 50.59693874958497]}}, {"type": "Feature", "properties": {"norad_id": 66547, "name": "SHIJIAN-30C", "group": "last-30-days", "lat": 49.99782364529487, "lon": 48.69767098095056, "alt_km": 512.8396740912294, "timestamp": "2025-12-11T10:53:14.620121+00:00", "meta": {"OBJECT_NAME": "SHIJIAN-30C", "OBJECT_ID": "2025-266C", "EPOCH": "2025-12-11T04:13:05.448864", "MEAN_MOTION": 15.1545719, "ECCENTRICITY": 0.0011339, "INCLINATION": 51.7977, "RA_OF_ASC_NODE": 340.203, "ARG_OF_PERICENTER": 345.2441, "MEAN_ANOMALY": 14.8203, "EPHEMERIS_TYPE": 0, "CLASSIFICATION_TYPE": "U", "NORAD_CAT_ID": 66547, "ELEMENT_SET_NO": 999, "REV_AT_EPOCH": 334, "BSTAR": 0.00085528, "MEAN_MOTION_DOT": 0.00016132, "MEAN_MOTION_DDOT": 0}, "tle": {"line1": "1 66547U 25266C   25345.17575751  .00016132  00000+0  85528-3 0  9999", "line2": "2 66547  51.7977 340.2030 0011339 345.2441  14.8203 15.15457190  3344"}}, "geometry": {"type": "Point", "coordinates": [48.69767098095056, 49.99782364529487]}}, {"type": "Feature", "properties": {"norad_id": 66548, "name": "CZ-2C R/B", "group": "last-30-days", "lat": 21.806895582751498, "lon": 139.2151097000403, "alt_km": 417.834325531333, "timestamp": "2025-12-11T10:53:14.620131+00:00", "meta": {"OBJECT_NAME": "CZ-2C R/B", "OBJECT_ID": "2025-266D", "EPOCH": "2025-12-11T03:57:23.309568", "MEAN_MOTION": 15.30124012, "ECCENTRICITY": 0.0083992, "INCLINATION": 52.0561, "RA_OF_ASC_NODE": 338.7826, "ARG_OF_PERICENTER": 167.6033, "MEAN_ANOMALY": 192.7046, "EPHEMERIS_TYPE": 0, "CLASSIFICATION_TYPE": "U", "NORAD_CAT_ID": 66548, "ELEMENT_SET_NO": 999, "REV_AT_EPOCH": 337, "BSTAR": 0.00047846, "MEAN_MOTION_DOT": 0.00015394, "MEAN_MOTION_DDOT": 0}, "tle": {"line1": "1 66548U 25266D   25345.16485312  .00015394  00000+0  47846-3 0  9992", "line2": "2 66548  52.0561 338.7826 0083992 167.6033 192.7046 15.30124012  3375"}}, "geometry": {"type": "Point", "coordinates": [139.2151097000403, 21.806895582751498]}}, {"type": "Feature", "properties": {"norad_id": 66549, "name": "SHIJIAN-28", "group": "last-30-days", "lat": 11.132761547220996, "lon": -11.478264145586648, "alt_km": 13122.879245649943, "timestamp": "2025-12-11T10:53:14.620145+00:00", "meta": {"OBJECT_NAME": "SHIJIAN-28", "OBJECT_ID": "2025-277A", "EPOCH": "2025-12-01T04:36:42.476256", "MEAN_MOTION": 2.08595383, "ECCENTRICITY": 0.6308324, "INCLINATION": 11.5392, "RA_OF_ASC_NODE": 275.706, "ARG_OF_PERICENTER": 179.9335, "MEAN_ANOMALY": 180.3971, "EPHEMERIS_TYPE": 0, "CLASSIFICATION_TYPE": "U", "NORAD_CAT_ID": 66549, "ELEMENT_SET_NO": 999, "REV_AT_EPOCH": 5, "BSTAR": 0, "MEAN_MOTION_DOT": -3.3e-07, "MEAN_MOTION_DDOT": 0}, "tle": {"line1": "1 66549U 25277A   25335.19215829 -.00000033  00000+0  00000+0 0  9993", "line2": "2 66549  11.5392 275.7060 6308324 179.9335 180.3971  2.08595383    50"}}, "geometry": {"type": "Point", "coordinates": [-11.478264145586648, 11.132761547220996]}}, {"type": "Feature", "properties": {"norad_id": 66550, "name": "CZ-7A R/B", "group": "last-30-days", "lat": -3.738240268952565, "lon": -104.15520706104925, "alt_km": 25200.350956478356, "timestamp": "2025-12-11T10:53:14.620164+00:00", "meta": {"OBJECT_NAME": "CZ-7A R/B", "OBJECT_ID": "2025-277B", "EPOCH": "2025-12-09T05:27:24.418944", "MEAN_MOTION": 2.57975656, "ECCENTRICITY": 0.71041719, "INCLINATION": 14.4001, "RA_OF_ASC_NODE": 271.6446, "ARG_OF_PERICENTER": 185.6905, "MEAN_ANOMALY": 156.7335, "EPHEMERIS_TYPE": 0, "CLASSIFICATION_TYPE": "U", "NORAD_CAT_ID": 66550, "ELEMENT_SET_NO": 999, "REV_AT_EPOCH": 25, "BSTAR": 0.0029500826, "MEAN_MOTION_DOT": 0.01805656, "MEAN_MOTION_DDOT": 5.50612e-07}, "tle": {"line1": "1 66550U 25277B   25343.22736596  .01805656  55061-6  29501-2 0  9995", "line2": "2 66550  14.4001 271.6446 7104171 185.6905 156.7335  2.57975656   258"}}, "geometry": {"type": "Point", "coordinates": [-104.15520706104925, -3.738240268952565]}}, {"type": "Feature", "properties": {"norad_id": 66551, "name": "USA 568", "group": "last-30-days", "lat": 49.058000015706206, "lon": -106.73692033783304, "alt_km": 272.32780580487906, "timestamp": "2025-12-11T10:53:14.620177+00:00", "meta": {"OBJECT_NAME": "USA 568", "OBJECT_ID": "2024-134K", "EPOCH": "2025-12-02T16:00:03.000096", "MEAN_MOTION": 15.87051116, "ECCENTRICITY": 7.17e-05, "INCLINATION": 53.1571, "RA_OF_ASC_NODE": 236.7807, "ARG_OF_PERICENTER": 110.7411, "MEAN_ANOMALY": 313.9012, "EPHEMERIS_TYPE": 0, "CLASSIFICATION_TYPE": "U", "NORAD_CAT_ID": 66551, "ELEMENT_SET_NO": 999, "REV_AT_EPOCH": 262, "BSTAR": -0.0074303, "MEAN_MOTION_DOT": -0.01709685, "MEAN_MOTION_DDOT": 0}, "tle": {"line1": "1 66551U 24134K   25336.66670139 -.01709685  00000+0 -74303-2 0  9990", "line2": "2 66551  53.1571 236.7807 0000717 110.7411 313.9012 15.87051116  2624"}}, "geometry": {"type": "Point", "coordinates": [-106.73692033783304, 49.058000015706206]}}, {"type": "Feature", "properties": {"norad_id": 66554, "name": "GLOBAL-33", "group": "last-30-days", "lat": 13.055470623194795, "lon": -130.50733773269334, "alt_km": 470.187700580469, "timestamp": "2025-12-11T10:53:14.620188+00:00", "meta": {"OBJECT_NAME": "GLOBAL-33", "OBJECT_ID": "2025-267A", "EPOCH": "2025-12-10T15:24:39.487680", "MEAN_MOTION": 15.31574515, "ECCENTRICITY": 0.00044949, "INCLINATION": 42.0208, "RA_OF_ASC_NODE": 69.1028, "ARG_OF_PERICENTER": 38.4593, "MEAN_ANOMALY": 321.6564, "EPHEMERIS_TYPE": 0, "CLASSIFICATION_TYPE": "U", "NORAD_CAT_ID": 66554, "ELEMENT_SET_NO": 999, "REV_AT_EPOCH": 308, "BSTAR": 0.0006382923, "MEAN_MOTION_DOT": 0.00019688, "MEAN_MOTION_DDOT": 0}, "tle": {"line1": "1 66554U 25267A   25344.64212370  .00019688  00000+0  63829-3 0  9993", "line2": "2 66554  42.0208  69.1028 0004494  38.4593 321.6564 15.31574515  3088"}}, "geometry": {"type": "Point", "coordinates": [-130.50733773269334, 13.055470623194795]}}, {"type": "Feature", "properties": {"norad_id": 66555, "name": "ELECTRON KICK STAGE R/B", "group": "last-30-days", "lat": -25.563095824761106, "lon": -83.63879278291951, "alt_km": 474.57359303891826, "timestamp": "2025-12-11T10:53:14.620200+00:00", "meta": {"OBJECT_NAME": "ELECTRON KICK STAGE R/B", "OBJECT_ID": "2025-267B", "EPOCH": "2025-12-10T16:43:42.369888", "MEAN_MOTION": 15.32651226, "ECCENTRICITY": 0.0006656, "INCLINATION": 42.0192, "RA_OF_ASC_NODE": 68.6479, "ARG_OF_PERICENTER": 36.7462, "MEAN_ANOMALY": 323.3831, "EPHEMERIS_TYPE": 0, "CLASSIFICATION_TYPE": "U", "NORAD_CAT_ID": 66555, "ELEMENT_SET_NO": 999, "REV_AT_EPOCH": 309, "BSTAR": 0.0011651787, "MEAN_MOTION_DOT": 0.000375, "MEAN_MOTION_DDOT": 0}, "tle": {"line1": "1 66555U 25267B   25344.69701817  .00037500  00000+0  11652-2 0  9997", "line2": "2 66555  42.0192  68.6479 0006656  36.7462 323.3831 15.32651226  3096"}}, "geometry": {"type": "Point", "coordinates": [-83.63879278291951, -25.563095824761106]}}, {"type": "Feature", "properties": {"norad_id": 66557, "name": "STARLINK-35699", "group": "last-30-days", "lat": 39.513166187584666, "lon": -113.53609936166396, "alt_km": 409.8593817268029, "timestamp": "2025-12-11T10:53:14.620211+00:00", "meta": {"OBJECT_NAME": "STARLINK-35699", "OBJECT_ID": "2025-268A", "EPOCH": "2025-12-11T04:00:01.998720", "MEAN_MOTION": 15.50622618, "ECCENTRICITY": 0.0002055, "INCLINATION": 43.0005, "RA_OF_ASC_NODE": 130.3973, "ARG_OF_PERICENTER": 259.9285, "MEAN_ANOMALY": 47.3544, "EPHEMERIS_TYPE": 0, "CLASSIFICATION_TYPE": "U", "NORAD_CAT_ID": 66557, "ELEMENT_SET_NO": 999, "REV_AT_EPOCH": 441, "BSTAR": -0.0002772, "MEAN_MOTION_DOT": -0.00016596, "MEAN_MOTION_DDOT": 0}, "tle": {"line1": "1 66557U 25268A   25345.16668980 -.00016596  00000+0 -27720-3 0  9994", "line2": "2 66557  43.0005 130.3973 0002055 259.9285  47.3544 15.50622618  4413"}}, "geometry": {"type": "Point", "coordinates": [-113.53609936166396, 39.513166187584666]}}, {"type": "Feature", "properties": {"norad_id": 66558, "name": "STARLINK-35695", "group": "last-30-days", "lat": 38.86855092736397, "lon": -111.15939246502566, "alt_km": 410.8468754941705, "timestamp": "2025-12-11T10:53:14.620224+00:00", "meta": {"OBJECT_NAME": "STARLINK-35695", "OBJECT_ID": "2025-268B", "EPOCH": "2025-12-11T04:00:01.998720", "MEAN_MOTION": 15.5078918, "ECCENTRICITY": 0.0003155, "INCLINATION": 43.0006, "RA_OF_ASC_NODE": 130.3934, "ARG_OF_PERICENTER": 263.751, "MEAN_ANOMALY": 45.4343, "EPHEMERIS_TYPE": 0, "CLASSIFICATION_TYPE": "U", "NORAD_CAT_ID": 66558, "ELEMENT_SET_NO": 999, "REV_AT_EPOCH": 441, "BSTAR": -0.0070353, "MEAN_MOTION_DOT": -0.0039598, "MEAN_MOTION_DDOT": 0}, "tle": {"line1": "1 66558U 25268B   25345.16668980 -.00395980  00000+0 -70353-2 0  9991", "line2": "2 66558  43.0006 130.3934 0003155 263.7510  45.4343 15.50789180  4412"}}, "geometry": {"type": "Point", "coordinates": [-111.15939246502566, 38.86855092736397]}}]}